start=new Date('2022-03-08T00:00:00.000Z').valueOf();
sats=[{"NORAD_CAT_ID":"49762","DECAY_DATE":null,"PERIAPSIS":"442.587","REV_AT_EPOCH":"361","ELEMENT_SET_NO":"999","MEAN_MOTION":"15.40453640","SITE":"AFETR","LAUNCH_DATE":"2021-12-02","SEMIMAJOR_AXIS":"6822.906","REF_FRAME":"TEME","OBJECT_ID":"2021-115AQ","MEAN_MOTION_DOT":"0.00005199","APOAPSIS":"446.956","TIME_SYSTEM":"UTC","COUNTRY_CODE":"US","TLE_LINE1":"1 49762U 21115AQ  22066.91667824  .00005199  00000-0  13618-3 0  9993","GP_ID":"198189416","ECCENTRICITY":"0.00032010","EPOCH":"2022-03-07T22:00:00.999936","MEAN_ELEMENT_THEORY":"SGP4","CENTER_NAME":"EARTH","OBJECT_NAME":"STARLINK-3195","INCLINATION":"53.2169","CLASSIFICATION_TYPE":"U","TLE_LINE2":"2 49762  53.2169 229.8491 0003201  12.0240 228.7651 15.40453640  3619","BSTAR":"0.00013618000000","EPHEMERIS_TYPE":"0","RCS_SIZE":"LARGE","ARG_OF_PERICENTER":"12.0240","PERIOD":"93.479","MEAN_ANOMALY":"228.7651","FILE":"3349821","MEAN_MOTION_DDOT":"0.0000000000000","OBJECT_TYPE":"PAYLOAD","RA_OF_ASC_NODE":"229.8491"},{"ARG_OF_PERICENTER":"9.5299","MEAN_ANOMALY":"234.3455","PERIOD":"93.482","MEAN_MOTION_DDOT":"0.0000000000000","OBJECT_TYPE":"PAYLOAD","RA_OF_ASC_NODE":"229.8434","FILE":"3349821","CLASSIFICATION_TYPE":"U","INCLINATION":"53.2168","OBJECT_NAME":"STARLINK-3198","CENTER_NAME":"EARTH","MEAN_ELEMENT_THEORY":"SGP4","BSTAR":"0.00125970000000","RCS_SIZE":"LARGE","EPHEMERIS_TYPE":"0","TLE_LINE2":"2 49763  53.2168 229.8434 0003695   9.5299 234.3455 15.40406698  3614","APOAPSIS":"447.431","TIME_SYSTEM":"UTC","EPOCH":"2022-03-07T22:00:00.999936","ECCENTRICITY":"0.00036950","TLE_LINE1":"1 49763U 21115AR  22066.91667824  .00051664  00000-0  12597-2 0  9996","COUNTRY_CODE":"US","GP_ID":"198190166","REV_AT_EPOCH":"361","PERIAPSIS":"442.389","NORAD_CAT_ID":"49763","DECAY_DATE":null,"OBJECT_ID":"2021-115AR","MEAN_MOTION_DOT":"0.00051664","SITE":"AFETR","MEAN_MOTION":"15.40406698","ELEMENT_SET_NO":"999","SEMIMAJOR_AXIS":"6823.045","REF_FRAME":"TEME","LAUNCH_DATE":"2021-12-02"},{"TLE_LINE2":"2 49764  53.2163 229.8493 0003332  19.8391 218.7250 15.40418628  3615","RCS_SIZE":"LARGE","EPHEMERIS_TYPE":"0","BSTAR":"0.00200390000000","INCLINATION":"53.2163","OBJECT_NAME":"STARLINK-3206","MEAN_ELEMENT_THEORY":"SGP4","CENTER_NAME":"EARTH","CLASSIFICATION_TYPE":"U","FILE":"3349821","OBJECT_TYPE":"PAYLOAD","RA_OF_ASC_NODE":"229.8493","MEAN_MOTION_DDOT":"0.0000000000000","MEAN_ANOMALY":"218.7250","PERIOD":"93.481","ARG_OF_PERICENTER":"19.8391","SEMIMAJOR_AXIS":"6823.010","REF_FRAME":"TEME","LAUNCH_DATE":"2021-12-02","SITE":"AFETR","ELEMENT_SET_NO":"999","MEAN_MOTION":"15.40418628","OBJECT_ID":"2021-115AS","MEAN_MOTION_DOT":"0.00082792","DECAY_DATE":null,"NORAD_CAT_ID":"49764","PERIAPSIS":"442.601","REV_AT_EPOCH":"361","TLE_LINE1":"1 49764U 21115AS  22066.91667824  .00082792  00000-0  20039-2 0  9993","COUNTRY_CODE":"US","GP_ID":"198190418","EPOCH":"2022-03-07T22:00:00.999936","ECCENTRICITY":"0.00033320","TIME_SYSTEM":"UTC","APOAPSIS":"447.148"},{"DECAY_DATE":null,"NORAD_CAT_ID":"49765","PERIAPSIS":"442.652","REV_AT_EPOCH":"1589","SEMIMAJOR_AXIS":"6823.032","REF_FRAME":"TEME","LAUNCH_DATE":"2021-12-02","SITE":"AFETR","MEAN_MOTION":"15.40411013","ELEMENT_SET_NO":"999","MEAN_MOTION_DOT":"0.00038979","OBJECT_ID":"2021-115AT","TIME_SYSTEM":"UTC","APOAPSIS":"447.143","TLE_LINE1":"1 49765U 21115AT  22066.91667824  .00038979  00000-0  95429-3 0  9998","GP_ID":"198165587","COUNTRY_CODE":"US","EPOCH":"2022-03-07T22:00:00.999936","ECCENTRICITY":"0.00032910","OBJECT_NAME":"STARLINK-3227","INCLINATION":"53.2168","MEAN_ELEMENT_THEORY":"SGP4","CENTER_NAME":"EARTH","CLASSIFICATION_TYPE":"U","TLE_LINE2":"2 49765  53.2168 229.8474 0003291  10.6865 231.1306 15.40411013 15894","RCS_SIZE":"LARGE","EPHEMERIS_TYPE":"0","BSTAR":"0.00095429000000","MEAN_ANOMALY":"231.1306","PERIOD":"93.482","ARG_OF_PERICENTER":"10.6865","FILE":"3349741","RA_OF_ASC_NODE":"229.8474","OBJECT_TYPE":"PAYLOAD","MEAN_MOTION_DDOT":"0.0000000000000"},{"BSTAR":"0.00100200000000","EPHEMERIS_TYPE":"0","RCS_SIZE":"LARGE","TLE_LINE2":"2 49766  53.2163 229.8504 0004145   9.1196 228.5024 15.40406721  3617","CLASSIFICATION_TYPE":"U","MEAN_ELEMENT_THEORY":"SGP4","CENTER_NAME":"EARTH","INCLINATION":"53.2163","OBJECT_NAME":"STARLINK-3190","MEAN_MOTION_DDOT":"0.0000000000000","OBJECT_TYPE":"PAYLOAD","RA_OF_ASC_NODE":"229.8504","FILE":"3349821","ARG_OF_PERICENTER":"9.1196","PERIOD":"93.482","MEAN_ANOMALY":"228.5024","OBJECT_ID":"2021-115AU","MEAN_MOTION_DOT":"0.00040956","MEAN_MOTION":"15.40406721","ELEMENT_SET_NO":"999","SITE":"AFETR","LAUNCH_DATE":"2021-12-02","SEMIMAJOR_AXIS":"6823.045","REF_FRAME":"TEME","PERIAPSIS":"442.082","REV_AT_EPOCH":"361","NORAD_CAT_ID":"49766","DECAY_DATE":null,"ECCENTRICITY":"0.00041450","EPOCH":"2022-03-07T22:00:00.999936","TLE_LINE1":"1 49766U 21115AU  22066.91667824  .00040956  00000-0  10020-2 0  9990","GP_ID":"198189916","COUNTRY_CODE":"US","APOAPSIS":"447.738","TIME_SYSTEM":"UTC"},{"CLASSIFICATION_TYPE":"U","MEAN_ELEMENT_THEORY":"SGP4","CENTER_NAME":"EARTH","INCLINATION":"53.2167","OBJECT_NAME":"STARLINK-3192","EPHEMERIS_TYPE":"0","RCS_SIZE":"LARGE","BSTAR":"0.00123160000000","TLE_LINE2":"2 49767  53.2167 229.8501 0003759   6.2492 233.4601 15.40405660 15896","PERIOD":"93.482","MEAN_ANOMALY":"233.4601","ARG_OF_PERICENTER":"6.2492","OBJECT_TYPE":"PAYLOAD","RA_OF_ASC_NODE":"229.8501","MEAN_MOTION_DDOT":"0.0000000000000","FILE":"3349750","REV_AT_EPOCH":"1589","PERIAPSIS":"442.348","DECAY_DATE":null,"NORAD_CAT_ID":"49767","OBJECT_ID":"2021-115AV","MEAN_MOTION_DOT":"0.00050493","LAUNCH_DATE":"2021-12-02","SEMIMAJOR_AXIS":"6823.048","REF_FRAME":"TEME","ELEMENT_SET_NO":"999","MEAN_MOTION":"15.40405660","SITE":"AFETR","TIME_SYSTEM":"UTC","APOAPSIS":"447.478","ECCENTRICITY":"0.00037590","EPOCH":"2022-03-07T22:00:00.999936","TLE_LINE1":"1 49767U 21115AV  22066.91667824  .00050493  00000-0  12316-2 0  9998","GP_ID":"198165551","COUNTRY_CODE":"US"},{"ARG_OF_PERICENTER":"2.8163","PERIOD":"93.483","MEAN_ANOMALY":"232.7126","MEAN_MOTION_DDOT":"0.0000000000000","OBJECT_TYPE":"PAYLOAD","RA_OF_ASC_NODE":"229.8528","FILE":"3349821","CLASSIFICATION_TYPE":"U","CENTER_NAME":"EARTH","MEAN_ELEMENT_THEORY":"SGP4","INCLINATION":"53.2161","OBJECT_NAME":"STARLINK-3196","BSTAR":"0.00212760000000","EPHEMERIS_TYPE":"0","RCS_SIZE":"LARGE","TLE_LINE2":"2 49768  53.2161 229.8528 0004128   2.8163 232.7126 15.40385915  3619","APOAPSIS":"447.788","TIME_SYSTEM":"UTC","ECCENTRICITY":"0.00041280","EPOCH":"2022-03-07T22:00:00.999936","COUNTRY_CODE":"US","TLE_LINE1":"1 49768U 21115AW  22066.91667824  .00087899  00000-0  21276-2 0  9994","GP_ID":"198190918","REV_AT_EPOCH":"361","PERIAPSIS":"442.155","NORAD_CAT_ID":"49768","DECAY_DATE":null,"MEAN_MOTION_DOT":"0.00087899","OBJECT_ID":"2021-115AW","MEAN_MOTION":"15.40385915","ELEMENT_SET_NO":"999","SITE":"AFETR","LAUNCH_DATE":"2021-12-02","SEMIMAJOR_AXIS":"6823.106","REF_FRAME":"TEME"},{"CLASSIFICATION_TYPE":"U","CENTER_NAME":"EARTH","MEAN_ELEMENT_THEORY":"SGP4","OBJECT_NAME":"STARLINK-3208","INCLINATION":"53.2165","BSTAR":"0.00109760000000","EPHEMERIS_TYPE":"0","RCS_SIZE":"LARGE","TLE_LINE2":"2 49769  53.2165 229.8551 0004495   5.9213 230.6504 15.40414770  3616","ARG_OF_PERICENTER":"5.9213","PERIOD":"93.481","MEAN_ANOMALY":"230.6504","MEAN_MOTION_DDOT":"0.0000000000000","RA_OF_ASC_NODE":"229.8551","OBJECT_TYPE":"PAYLOAD","FILE":"3349821","REV_AT_EPOCH":"361","PERIAPSIS":"441.819","NORAD_CAT_ID":"49769","DECAY_DATE":null,"MEAN_MOTION_DOT":"0.00044940","OBJECT_ID":"2021-115AX","ELEMENT_SET_NO":"999","MEAN_MOTION":"15.40414770","SITE":"AFETR","LAUNCH_DATE":"2021-12-02","SEMIMAJOR_AXIS":"6823.021","REF_FRAME":"TEME","APOAPSIS":"447.953","TIME_SYSTEM":"UTC","ECCENTRICITY":"0.00044950","EPOCH":"2022-03-07T22:00:00.999936","TLE_LINE1":"1 49769U 21115AX  22066.91667824  .00044940  00000-0  10976-2 0  9990","GP_ID":"198190669","COUNTRY_CODE":"US"},{"TIME_SYSTEM":"UTC","APOAPSIS":"447.783","ECCENTRICITY":"0.00042220","EPOCH":"2022-03-07T22:00:00.999936","TLE_LINE1":"1 49770U 21115AY  22066.91667824  .00040279  00000-0  98559-3 0  9997","GP_ID":"198165565","COUNTRY_CODE":"US","REV_AT_EPOCH":"1589","PERIAPSIS":"442.021","DECAY_DATE":null,"NORAD_CAT_ID":"49770","MEAN_MOTION_DOT":"0.00040279","OBJECT_ID":"2021-115AY","LAUNCH_DATE":"2021-12-02","SEMIMAJOR_AXIS":"6823.037","REF_FRAME":"TEME","MEAN_MOTION":"15.40409464","ELEMENT_SET_NO":"999","SITE":"AFETR","PERIOD":"93.482","MEAN_ANOMALY":"229.6084","ARG_OF_PERICENTER":"4.8605","OBJECT_TYPE":"PAYLOAD","RA_OF_ASC_NODE":"229.8546","MEAN_MOTION_DDOT":"0.0000000000000","FILE":"3349739","CLASSIFICATION_TYPE":"U","MEAN_ELEMENT_THEORY":"SGP4","CENTER_NAME":"EARTH","OBJECT_NAME":"STARLINK-3191","INCLINATION":"53.2161","EPHEMERIS_TYPE":"0","RCS_SIZE":"LARGE","BSTAR":"0.00098559000000","TLE_LINE2":"2 49770  53.2161 229.8546 0004222   4.8605 229.6084 15.40409464 15897"},{"ECCENTRICITY":"0.00037160","EPOCH":"2022-03-07T22:00:00.999936","COUNTRY_CODE":"US","TLE_LINE1":"1 49771U 21115AZ  22066.91667824  .00088608  00000-0  21427-2 0  9995","GP_ID":"198165592","TIME_SYSTEM":"UTC","APOAPSIS":"447.428","OBJECT_ID":"2021-115AZ","MEAN_MOTION_DOT":"0.00088608","LAUNCH_DATE":"2021-12-02","SEMIMAJOR_AXIS":"6823.028","REF_FRAME":"TEME","MEAN_MOTION":"15.40412587","ELEMENT_SET_NO":"999","SITE":"AFETR","PERIAPSIS":"442.357","REV_AT_EPOCH":"1589","DECAY_DATE":null,"NORAD_CAT_ID":"49771","OBJECT_TYPE":"PAYLOAD","RA_OF_ASC_NODE":"229.8616","MEAN_MOTION_DDOT":"0.0000000000000","FILE":"3349741","PERIOD":"93.481","MEAN_ANOMALY":"223.5403","ARG_OF_PERICENTER":"9.7719","EPHEMERIS_TYPE":"0","RCS_SIZE":"LARGE","BSTAR":"0.00214270000000","TLE_LINE2":"2 49771  53.2165 229.8616 0003716   9.7719 223.5403 15.40412587 15895","CLASSIFICATION_TYPE":"U","CENTER_NAME":"EARTH","MEAN_ELEMENT_THEORY":"SGP4","INCLINATION":"53.2165","OBJECT_NAME":"STARLINK-3201"}];
